STARLINK-6174
1 57366U 23099AQ  26092.83335647  .00041690  00000+0  23158-2 0  9998
2 57366  43.0009 104.3373 0001975 253.1038  90.9849 15.13052273  5665
